{"type": "FeatureCollection", "features": [ {"type": "Feature", "properties": {"norad_id": 41006, "name": "FENGYUN 1C DEB", "group": "fengyun-1c-debris", "lat": 0.9815939783546748, "lon": 38.29228967939355, "alt_km": 1084.701317458026, "timestamp": "2025-12-13T03:42:11.563135+00:00", "meta": {"OBJECT_NAME": "FENGYUN 1C DEB", "OBJECT_ID": "1999-025EXL", "EPOCH": "2025-12-08T08:27:10.950912", "MEAN_MOTION": 13.85315126, "ECCENTRICITY": 0.01896295, "INCLINATION": 102.3663, "RA_OF_ASC_NODE": 211.7628, "ARG_OF_PERICENTER": 18.9212, "MEAN_ANOMALY": 341.8856, "EPHEMERIS_TYPE": 0, "CLASSIFICATION_TYPE": "U", "NORAD_CAT_ID": 41006, "ELEMENT_SET_NO": 999, "REV_AT_EPOCH": 57428, "BSTAR": 0.0041566845, "MEAN_MOTION_DOT": 5.374e-05, "MEAN_MOTION_DDOT": 0}, "tle": {"line1": "1 41006U 99025EXL 25342.35221008  .00005374  00000+0  41567-2 0  9996", "line2": "2 41006 102.3663 211.7628 0189629  18.9212 341.8856 13.85315126574285"}}, "geometry": {"type": "Point", "coordinates": [38.29228967939355, 0.9815939783546748]}}, {"type": "Feature", "properties": {"norad_id": 41007, "name": "FENGYUN 1C DEB", "group": "fengyun-1c-debris", "lat": 15.026224760585537, "lon": 11.247480600499356, "alt_km": 832.0841060145704, "timestamp": "2025-12-13T03:42:11.563145+00:00", "meta": {"OBJECT_NAME": "FENGYUN 1C DEB", "OBJECT_ID": "1999-025EXM", "EPOCH": "2025-11-29T06:55:22.773792", "MEAN_MOTION": 13.85678237, "ECCENTRICITY": 0.01723955, "INCLINATION": 99.9731, "RA_OF_ASC_NODE": 359.205, "ARG_OF_PERICENTER": 79.2855, "MEAN_ANOMALY": 282.7657, "EPHEMERIS_TYPE": 0, "CLASSIFICATION_TYPE": "U", "NORAD_CAT_ID": 41007, "ELEMENT_SET_NO": 999, "REV_AT_EPOCH": 57212, "BSTAR": 0.0017167305, "MEAN_MOTION_DOT": 2.158e-05, "MEAN_MOTION_DDOT": 0}, "tle": {"line1": "1 41007U 99025EXM 25333.28845803  .00002158  00000+0  17167-2 0  9990", "line2": "2 41007  99.9731 359.2050 0172395  79.2855 282.7657 13.85678237572123"}}, "geometry": {"type": "Point", "coordinates": [11.247480600499356, 15.026224760585537]}}, {"type": "Feature", "properties": {"norad_id": 41011, "name": "FENGYUN 1C DEB", "group": "fengyun-1c-debris", "lat": -61.0435943470447, "lon": -164.77598928375195, "alt_km": 842.3134939247739, "timestamp": "2025-12-13T03:42:11.563156+00:00", "meta": {"OBJECT_NAME": "FENGYUN 1C DEB", "OBJECT_ID": "1999-025EXR", "EPOCH": "2025-12-10T21:18:45.300384", "MEAN_MOTION": 14.42881738, "ECCENTRICITY": 0.0310259, "INCLINATION": 99.169, "RA_OF_ASC_NODE": 29.7554, "ARG_OF_PERICENTER": 3.6391, "MEAN_ANOMALY": 356.6951, "EPHEMERIS_TYPE": 0, "CLASSIFICATION_TYPE": "U", "NORAD_CAT_ID": 41011, "ELEMENT_SET_NO": 999, "REV_AT_EPOCH": 57130, "BSTAR": 0.00084069, "MEAN_MOTION_DOT": 4.979e-05, "MEAN_MOTION_DDOT": 0}, "tle": {"line1": "1 41011U 99025EXR 25344.88802431  .00004979  00000+0  84069-3 0  9992", "line2": "2 41011  99.1690  29.7554 0310259   3.6391 356.6951 14.42881738571304"}}, "geometry": {"type": "Point", "coordinates": [-164.77598928375195, -61.0435943470447]}}, {"type": "Feature", "properties": {"norad_id": 41018, "name": "FENGYUN 1C DEB", "group": "fengyun-1c-debris", "lat": 70.8503860522189, "lon": -98.7735597610193, "alt_km": 890.8165403815783, "timestamp": "2025-12-13T03:42:11.563166+00:00", "meta": {"OBJECT_NAME": "FENGYUN 1C DEB", "OBJECT_ID": "1999-025EXY", "EPOCH": "2025-12-11T01:37:38.775360", "MEAN_MOTION": 13.52353334, "ECCENTRICITY": 0.03042761, "INCLINATION": 99.9366, "RA_OF_ASC_NODE": 289.4523, "ARG_OF_PERICENTER": 122.8636, "MEAN_ANOMALY": 240.2177, "EPHEMERIS_TYPE": 0, "CLASSIFICATION_TYPE": "U", "NORAD_CAT_ID": 41018, "ELEMENT_SET_NO": 999, "REV_AT_EPOCH": 88152, "BSTAR": 0.0022479257, "MEAN_MOTION_DOT": 1.943e-05, "MEAN_MOTION_DDOT": 0}, "tle": {"line1": "1 41018U 99025EXY 25345.06780990  .00001943  00000+0  22479-2 0  9999", "line2": "2 41018  99.9366 289.4523 0304276 122.8636 240.2177 13.52353334881520"}}, "geometry": {"type": "Point", "coordinates": [-98.7735597610193, 70.8503860522189]}}, {"type": "Feature", "properties": {"norad_id": 41822, "name": "FENGYUN 1C DEB", "group": "fengyun-1c-debris", "lat": -44.00507471993329, "lon": -135.17586965065593, "alt_km": 776.1955888829334, "timestamp": "2025-12-13T03:42:11.563176+00:00", "meta": {"OBJECT_NAME": "FENGYUN 1C DEB", "OBJECT_ID": "1999-025EXZ", "EPOCH": "2025-12-11T15:15:25.440768", "MEAN_MOTION": 14.24784752, "ECCENTRICITY": 0.00553368, "INCLINATION": 98.7324, "RA_OF_ASC_NODE": 51.8512, "ARG_OF_PERICENTER": 223.632, "MEAN_ANOMALY": 136.0477, "EPHEMERIS_TYPE": 0, "CLASSIFICATION_TYPE": "U", "NORAD_CAT_ID": 41822, "ELEMENT_SET_NO": 999, "REV_AT_EPOCH": 47357, "BSTAR": 0.0025006795, "MEAN_MOTION_DOT": 5.882e-05, "MEAN_MOTION_DDOT": 0}, "tle": {"line1": "1 41822U 99025EXZ 25345.63571112  .00005882  00000+0  25007-2 0  9995", "line2": "2 41822  98.7324  51.8512 0055336 223.6320 136.0477 14.24784752473572"}}, "geometry": {"type": "Point", "coordinates": [-135.17586965065593, -44.00507471993329]}}, {"type": "Feature", "properties": {"norad_id": 41823, "name": "FENGYUN 1C DEB", "group": "fengyun-1c-debris", "lat": -64.36027457726873, "lon": 69.1253203374303, "alt_km": 805.2665484683066, "timestamp": "2025-12-13T03:42:11.563186+00:00", "meta": {"OBJECT_NAME": "FENGYUN 1C DEB", "OBJECT_ID": "1999-025EYA", "EPOCH": "2025-12-12T04:23:43.618272", "MEAN_MOTION": 14.23513157, "ECCENTRICITY": 0.00546409, "INCLINATION": 98.7204, "RA_OF_ASC_NODE": 49.5135, "ARG_OF_PERICENTER": 229.8106, "MEAN_ANOMALY": 129.8283, "EPHEMERIS_TYPE": 0, "CLASSIFICATION_TYPE": "U", "NORAD_CAT_ID": 41823, "ELEMENT_SET_NO": 999, "REV_AT_EPOCH": 47350, "BSTAR": 0.0023637042, "MEAN_MOTION_DOT": 5.419e-05, "MEAN_MOTION_DDOT": 0}, "tle": {"line1": "1 41823U 99025EYA 25346.18314373  .00005419  00000+0  23637-2 0  9994", "line2": "2 41823  98.7204  49.5135 0054640 229.8106 129.8283 14.23513157473508"}}, "geometry": {"type": "Point", "coordinates": [69.1253203374303, -64.36027457726873]}}, {"type": "Feature", "properties": {"norad_id": 41824, "name": "FENGYUN 1C DEB", "group": "fengyun-1c-debris", "lat": 20.531510262059545, "lon": -125.52373797649402, "alt_km": 794.9404191366348, "timestamp": "2025-12-13T03:42:11.563196+00:00", "meta": {"OBJECT_NAME": "FENGYUN 1C DEB", "OBJECT_ID": "1999-025EYB", "EPOCH": "2025-12-12T03:20:49.930656", "MEAN_MOTION": 14.2415647, "ECCENTRICITY": 0.00573862, "INCLINATION": 98.7313, "RA_OF_ASC_NODE": 50.1688, "ARG_OF_PERICENTER": 229.1277, "MEAN_ANOMALY": 130.4921, "EPHEMERIS_TYPE": 0, "CLASSIFICATION_TYPE": "U", "NORAD_CAT_ID": 41824, "ELEMENT_SET_NO": 999, "REV_AT_EPOCH": 47351, "BSTAR": 0.0024333498, "MEAN_MOTION_DOT": 5.659e-05, "MEAN_MOTION_DDOT": 0}, "tle": {"line1": "1 41824U 99025EYB 25346.13946679  .00005659  00000+0  24333-2 0  9990", "line2": "2 41824  98.7313  50.1688 0057386 229.1277 130.4921 14.24156470473513"}}, "geometry": {"type": "Point", "coordinates": [-125.52373797649402, 20.531510262059545]}}, {"type": "Feature", "properties": {"norad_id": 41825, "name": "FENGYUN 1C DEB", "group": "fengyun-1c-debris", "lat": 23.9817152894448, "lon": 52.257755863623366, "alt_km": 846.1613679471266, "timestamp": "2025-12-13T03:42:11.563206+00:00", "meta": {"OBJECT_NAME": "FENGYUN 1C DEB", "OBJECT_ID": "1999-025EYC", "EPOCH": "2025-12-09T03:32:17.389536", "MEAN_MOTION": 14.25046246, "ECCENTRICITY": 0.00555494, "INCLINATION": 98.7437, "RA_OF_ASC_NODE": 52.192, "ARG_OF_PERICENTER": 230.7898, "MEAN_ANOMALY": 128.8342, "EPHEMERIS_TYPE": 0, "CLASSIFICATION_TYPE": "U", "NORAD_CAT_ID": 41825, "ELEMENT_SET_NO": 999, "REV_AT_EPOCH": 47297, "BSTAR": 0.002021998, "MEAN_MOTION_DOT": 4.772e-05, "MEAN_MOTION_DDOT": 0}, "tle": {"line1": "1 41825U 99025EYC 25343.14742349  .00004772  00000+0  20220-2 0  9993", "line2": "2 41825  98.7437  52.1920 0055549 230.7898 128.8342 14.25046246472975"}}, "geometry": {"type": "Point", "coordinates": [52.257755863623366, 23.9817152894448]}}, {"type": "Feature", "properties": {"norad_id": 41826, "name": "FENGYUN 1C DEB", "group": "fengyun-1c-debris", "lat": -5.4663333444739886, "lon": 53.78813935211281, "alt_km": 843.1481833536254, "timestamp": "2025-12-13T03:42:11.563217+00:00", "meta": {"OBJECT_NAME": "FENGYUN 1C DEB", "OBJECT_ID": "1999-025EYD", "EPOCH": "2025-12-10T21:45:22.076064", "MEAN_MOTION": 14.23727663, "ECCENTRICITY": 0.0055686, "INCLINATION": 98.7332, "RA_OF_ASC_NODE": 50.7137, "ARG_OF_PERICENTER": 228.7501, "MEAN_ANOMALY": 130.8873, "EPHEMERIS_TYPE": 0, "CLASSIFICATION_TYPE": "U", "NORAD_CAT_ID": 41826, "ELEMENT_SET_NO": 999, "REV_AT_EPOCH": 47334, "BSTAR": 0.0022505, "MEAN_MOTION_DOT": 5.181e-05, "MEAN_MOTION_DDOT": 0}, "tle": {"line1": "1 41826U 99025EYD 25344.90650551  .00005181  00000+0  22505-2 0  9995", "line2": "2 41826  98.7332  50.7137 0055686 228.7501 130.8873 14.23727663473345"}}, "geometry": {"type": "Point", "coordinates": [53.78813935211281, -5.4663333444739886]}}, {"type": "Feature", "properties": {"norad_id": 41827, "name": "FENGYUN 1C DEB", "group": "fengyun-1c-debris", "lat": -70.13290020352366, "lon": -148.84664318803587, "alt_km": 782.6007287351849, "timestamp": "2025-12-13T03:42:11.563227+00:00", "meta": {"OBJECT_NAME": "FENGYUN 1C DEB", "OBJECT_ID": "1999-025EYE", "EPOCH": "2025-12-10T15:33:15.246432", "MEAN_MOTION": 14.25246458, "ECCENTRICITY": 0.00581722, "INCLINATION": 98.7428, "RA_OF_ASC_NODE": 53.8617, "ARG_OF_PERICENTER": 219.5184, "MEAN_ANOMALY": 140.1747, "EPHEMERIS_TYPE": 0, "CLASSIFICATION_TYPE": "U", "NORAD_CAT_ID": 41827, "ELEMENT_SET_NO": 999, "REV_AT_EPOCH": 47301, "BSTAR": 0.0026161949, "MEAN_MOTION_DOT": 6.222e-05, "MEAN_MOTION_DDOT": 0}, "tle": {"line1": "1 41827U 99025EYE 25344.64809313  .00006222  00000+0  26162-2 0  9999", "line2": "2 41827  98.7428  53.8617 0058172 219.5184 140.1747 14.25246458473015"}}, "geometry": {"type": "Point", "coordinates": [-148.84664318803587, -70.13290020352366]}}]}